#cP2022  3 29 18  0  0.00000000     576 d+D   IGb14 EXT AIUB
## 2203 237600.00000000   300.00000000 59667 0.7500000000000
+   75   G01G02G03G04G05G06G07G08G09G10G11G12G13G14G15G16G17
+        G18G19G20G21G22G23G24G25G26G27G28G29G30G31G32R01R02
+        R03R04R05R07R08R09R12R13R14R15R17R18R19R21R24E01E02
+        E03E04E05E07E08E09E10E11E12E13E14E15E18E19E21E24E25
+        E26E27E30E31E33E34E36  0  0  0  0  0  0  0  0  0  0
++         5  7  6  8  7  6  7  6  6  6  8  7  7  7  7  7  7
++         8  7  7  7  7  7  6  6  6  6  7  7  6  6  6  8  7
++         7  7  7  6  7  7  7  8  7  7  7  7  8  8  8  5  6
++         6  6  5  6  6  6  6  6  6  6  7  6  6  7  6  6  6
++         7  5  6  6  6  6  7  0  0  0  0  0  0  0  0  0  0
%c M  cc GPS ccc cccc cccc cccc cccc ccccc ccccc ccccc ccccc
%c cc cc ccc ccc cccc cccc cccc cccc ccccc ccccc ccccc ccccc
%f  1.2500000  1.025000000  0.00000000000  0.000000000000000
%f  0.0000000  0.000000000  0.00000000000  0.000000000000000
%i    0    0    0    0      0      0      0      0         0
%i    0    0    0    0      0      0      0      0         0
/* Center for Orbit Determination in Europe (CODE)          
/* Ultra-rapid GRE orbits starting year-day 22088 18 hour   
/* Observed/predicted: 24/24 hours (data used up to 089R)   
/* PCV:IGS14      OL/AL:FES2014b NONE     YN ORB:CoN CLK:BRD
*  2022  3 29 21 45  0.00000000
PG01  18397.812789   8189.808562  17213.401849    397.171940
PG02 -14742.657948 -21957.143372   1967.774140   -652.752849
PG03  17037.325780  -3184.241165  19988.586865   -184.998926
PG04  26539.988307    951.069895   1630.544836   -180.023460
PG05 -10053.623910 -13078.847095 -20947.193292    -76.434235
PG06  -2522.125561 -22083.645213  14545.557944    248.289484
PG07  12532.868474  -8676.262701 -21350.030015    318.315958
PG08  23276.649262   6509.435348 -11443.359187    -61.800839
PG09  23845.073793  -7743.680732  -8881.926018   -346.951444
PG10 -11209.108539  23861.343565   1550.833188   -362.256719
PG11 -12731.102517 -23316.763637    386.773296    -53.116879
PG12 -15927.080667  -1512.767127  20908.084409   -192.397808
PG13 -16355.632615 -13007.701400 -16642.127627    285.191582
PG14  12871.681796 -23177.639011    540.147811    -98.358212
PG15 -24098.099174  -4312.976010 -11094.465085    -72.980959
PG16   5273.895524  16975.848585 -19853.925745   -486.174975
PG17  10952.561546 -13541.477379  20500.575199    593.664574
PG18 -12280.893139   8631.075996 -21913.283259    208.232181
PG19   2811.469562 -14516.951682  21794.085894    137.520483
PG20  -4667.601907 -21220.754676 -15428.867722    516.079346
PG21  20017.824884  15698.260966   9379.777046    159.941656
PG22    766.436503  15414.715094  22031.302825    235.175792
PG23 -16325.649221  18651.084351  -9417.619293    -10.873939
PG24 -20344.589115 -10775.571233  13295.298568    262.986937
PG25 -17969.343170  12613.387205  14460.072167    305.016064
PG26  -2225.437466  24022.820343 -10838.870845    194.666248
PG27  13642.715577  12603.909899 -19340.824469    169.238614
PG28   7562.402591 -23882.150122   9678.007630    374.687275
PG29 -25055.645579   4376.959406  -7805.724760   -497.123625
PG30   6274.562697 -16976.611645 -19286.523426   -521.254903
PG31   3901.494496  23030.870455  12063.350237   -171.126023
PG32  -6994.361666  15017.029604  20859.903892    -94.622153
PR01 -10253.208187  15509.825300  17478.006143      7.443239
PR02   9074.808155   7315.465129  22743.073237    514.006918
PR03  21342.554997  -4288.840501  13390.074268     53.993074
PR04  21563.152634 -13233.749982  -3255.586059    134.207158
PR05   9998.686876 -14897.001688 -18126.293578     90.248118
PR07 -21566.349932   4770.800413 -12674.536735     33.230631
PR08 -21405.647487  13408.448974   3529.273284    -64.294543
PR09  -6971.825052 -19798.489995  14454.488299     46.995319
PR12  -1812.405169  25302.907099   2588.839797     17.635101
PR13   6251.405420  20693.959032 -13558.476312    -20.138207
PR14  10993.795045   3006.579504 -22814.771049     75.929557
PR15   9047.613280 -15576.319047 -18047.045981     97.207616
PR17  22087.231685   8892.363225   9117.496714    513.447224
PR18  14022.689154  -2365.206491  21205.385525    111.869461
PR19    -56.402567 -12036.505094  22487.692118   -183.430184
PR21 -21788.509487  -8169.411396 -10471.611319   -289.211406
PR24  17886.251028  16110.970146  -8414.236498     86.674317
PE01  -9470.044224 -17349.792683  22031.465352   -606.316004
PE02   9595.890389  17176.756467 -22114.921833    289.459261
PE03  19521.686469  10657.396973  19529.486966   -542.537173
PE04 -29252.673931   2120.285119  -3982.398535   -995.232230
PE05  -1870.276060  17404.281148  23876.744931   -195.735903
PE07  21872.950792 -13923.241828 -14263.093316   -653.320208
PE08  29261.122862  -2474.986920   3683.170291   -503.488840
PE09 -21685.322065  14012.317618  14495.702712   -466.266682
PE10 -17600.397540   2818.800977 -23636.681789   -503.471759
PE11 -10338.587141  12647.038041 -24694.082318   4100.888907
PE12 -21757.865062  -6915.844372 -18825.821032   4688.916306
PE13  10822.741013 -11998.455002  24804.154155    427.656049
PE14  23942.138905  -2912.756388   4059.384313  -1795.635835
PE15  21790.900298   7067.178132  18758.440295    754.820486
PE18 -25861.789917  11601.253656 -15082.891600  -1626.027829
PE19 -17279.619912 -11859.361982 -20891.543062  -2141.557280
PE21   3809.212818 -27911.414423   9095.832353   -725.410407
PE24 -16311.810232  22156.977316  10862.398113   -532.418207
PE25  -3989.516649  27952.309199  -8868.434697   -568.543292
PE26  -7117.151585 -24242.998626  15420.171778   -969.707617
PE27  15733.618293 -23086.238485  -9804.339215   -264.367746
PE30  18195.939155  -3480.738215 -23104.375209   -388.532959
PE31 -18300.058978   4703.661094  22783.969407   -494.269197
PE33 -19853.051875 -21879.683590  -1672.636220   -458.101492
PE34  19985.186537  21754.804078   1874.502212   -509.347389
PE36   6445.333243  23903.998662 -16233.032770   -352.277507
EOF
